1 38971U 12044DE  18327.72026911  .00037770  55050-5  65296-3 0
2 38971  50.0818  88.8240 1587149 134.9945 239.1100 12.39626759254267